{"type": "FeatureCollection", "features": [{"type": "Feature", "geometry": {"type": "Polygon", "coordinates": [[[97.113647, 17.589049], [98.088684, 17.455473], [97.767334, 15.860958], [97.34436, 15.905867], [97.113647, 17.589049]]]}, "properties": {"Name_EN": "Thanlwin–Gyaing–Attaran AOI — Mon State & Kayin State", "Name_MMR": "မွန်ပြည်နယ်နှင့် ကရင်ပြည်နယ် ရေကြီးရေလျှံ လေ့လာဧရိယာ", "State_Region": "Mon and Kayin States, Myanmar", "Note": "Analysis AOI is this polygon, not an administrative boundary. Townships listed are those it intersects, most only partly.", "Townships": [{"TS": "Hpa-An", "TS_PCODE": "MMR003001", "TS_MMR": "ဘားအံ", "ST": "Kayin", "km2_in_aoi": 2618.4, "pct_of_township": 90.2}, {"TS": "Hlaingbwe", "TS_PCODE": "MMR003002", "TS_MMR": "လှိုင်းဘွဲ့", "ST": "Kayin", "km2_in_aoi": 2481.6, "pct_of_township": 57.4}, {"TS": "Bilin", "TS_PCODE": "MMR011010", "TS_MMR": "ဘီးလင်း", "ST": "Mon", "km2_in_aoi": 1426.8, "pct_of_township": 69.6}, {"TS": "Thaton", "TS_PCODE": "MMR011007", "TS_MMR": "သထုံ", "ST": "Mon", "km2_in_aoi": 1180.6, "pct_of_township": 90.0}, {"TS": "Paung", "TS_PCODE": "MMR011008", "TS_MMR": "ပေါင်", "ST": "Mon", "km2_in_aoi": 966.4, "pct_of_township": 100.0}, {"TS": "Mudon", "TS_PCODE": "MMR011005", "TS_MMR": "မုဒုံ", "ST": "Mon", "km2_in_aoi": 664.7, "pct_of_township": 90.3}, {"TS": "Kyaikmaraw", "TS_PCODE": "MMR011002", "TS_MMR": "ကျိုက်မရော", "ST": "Mon", "km2_in_aoi": 614.4, "pct_of_township": 46.9}, {"TS": "Chaungzon", "TS_PCODE": "MMR011003", "TS_MMR": "ချောင်းဆုံ", "ST": "Mon", "km2_in_aoi": 444.6, "pct_of_township": 100.0}, {"TS": "Hpapun", "TS_PCODE": "MMR003003", "TS_MMR": "ဖာပွန်", "ST": "Kayin", "km2_in_aoi": 349.4, "pct_of_township": 5.2}, {"TS": "Thanbyuzayat", "TS_PCODE": "MMR011004", "TS_MMR": "သံဖြူဇရပ်", "ST": "Mon", "km2_in_aoi": 298.8, "pct_of_township": 38.7}, {"TS": "Mawlamyine", "TS_PCODE": "MMR011001", "TS_MMR": "မော်လမြိုင်", "ST": "Mon", "km2_in_aoi": 155.7, "pct_of_township": 100.0}, {"TS": "Kawkareik", "TS_PCODE": "MMR003006", "TS_MMR": "ကော့ကရိတ်", "ST": "Kayin", "km2_in_aoi": 94.5, "pct_of_township": 3.9}, {"TS": "Shwegyin", "TS_PCODE": "MMR007008", "TS_MMR": "ရွှေကျင်", "ST": "Bago (East)", "km2_in_aoi": 71.7, "pct_of_township": 2.9}, {"TS": "Kyaikto", "TS_PCODE": "MMR011009", "TS_MMR": "ကျိုက်ထို", "ST": "Mon", "km2_in_aoi": 58.9, "pct_of_township": 6.1}, {"TS": "Kyainseikgyi", "TS_PCODE": "MMR003007", "TS_MMR": "ကြာအင်းဆိပ်ကြီး", "ST": "Kayin", "km2_in_aoi": 0.9, "pct_of_township": 0.0}]}}]}